KUIPER-00177            
1 67766U 26030C   26054.63226696  .00030310  00000+0  86311-3 0  9998
2 67766  51.8838 286.8514 0000716  91.5943 268.5125 15.35847807  2937
KUIPER-00178            
1 67767U 26030D   26054.63990672  .00030020  00000+0  88177-3 0  9991
2 67767  51.8839 286.9025 0005577  11.1111 348.9997 15.34868272  2930
KUIPER-00180            
1 67768U 26030E   26054.58821477  .00027662  00000+0  86563-3 0  9997
2 67768  51.8814 287.2973 0014905  26.2396 333.9341 15.32815646  2928
KUIPER-00197            
1 67769U 26030F   26054.63364281  .00033884  00000+0  96673-3 0  9995
2 67769  51.8839 286.8610 0001641  75.9299 284.1870 15.35731803  2935
KUIPER-00198            
1 67770U 26030G   26054.63624869  .00039270  00000+0  11302-2 0  9998
2 67770  51.8814 286.8760 0002504  25.3989 334.7120 15.35386700  2932
KUIPER-00199            
1 67771U 26030H   26054.64760223  .00030108  00000+0  91453-3 0  9992
2 67771  51.8802 286.9484 0010277  20.6712 339.4687 15.33772529  2938
KUIPER-00200            
1 67772U 26030J   26054.62935103  .00032735  00000+0  91616-3 0  9991
2 67772  51.8817 286.8320 0002321 155.2893 204.8205 15.36348912  2938
KUIPER-00203            
1 67773U 26030K   26054.12824138  .00029734  00000+0  91173-3 0  9995
2 67773  51.8804 289.4645 0012269  19.7843 340.3616 15.33457398  2854
KUIPER-00205            
1 67774U 26030L   26054.63427486  .00030431  00000+0  87035-3 0  9995
2 67774  51.8821 286.8642 0002040 354.7557   5.3408 15.35708706  2932
KUIPER-00208            
1 67775U 26030M   26054.58785574  .00019099  00000+0  60164-3 0  9996
2 67775  51.8842 287.3013 0014637  21.0632 339.0953 15.32836508  2927
KUIPER-00209            
1 67776U 26030N   26054.58691336  .00052418  00000+0  16269-2 0  9997
2 67776  51.8832 287.2940 0012562  22.4241 337.7290 15.32800114  2924
KUIPER-00213            
1 67777U 26030P   26054.58695801  .00042815  00000+0  13281-2 0  9990
2 67777  51.8816 287.2893 0014129  22.1239 338.0353 15.32889391  2927
