CCSDS_OMM_VERS = 2.0
CREATION_DATE  = 
ORIGINATOR     = 

OBJECT_NAME    = KUIPER-00177
OBJECT_ID      = 2026-030C
CENTER_NAME    = EARTH
REF_FRAME      = TEME
TIME_SYSTEM    = UTC
MEAN_ELEMENT_THEORY = SGP/SGP4

EPOCH          = 2026-02-23T15:10:27.865344
MEAN_MOTION    = 15.35847807
ECCENTRICITY   = .00007162
INCLINATION    = 51.8838
RA_OF_ASC_NODE = 286.8514
ARG_OF_PERICENTER = 91.5943
MEAN_ANOMALY   = 268.5125

EPHEMERIS_TYPE = 0
CLASSIFICATION_TYPE = U
NORAD_CAT_ID   = 67766
ELEMENT_SET_NO = 999
REV_AT_EPOCH   = 293
BSTAR          = .86311385E-3
MEAN_MOTION_DOT = .3031E-3
MEAN_MOTION_DDOT = 0

CCSDS_OMM_VERS = 2.0
CREATION_DATE  = 
ORIGINATOR     = 

OBJECT_NAME    = KUIPER-00178
OBJECT_ID      = 2026-030D
CENTER_NAME    = EARTH
REF_FRAME      = TEME
TIME_SYSTEM    = UTC
MEAN_ELEMENT_THEORY = SGP/SGP4

EPOCH          = 2026-02-23T15:21:27.940608
MEAN_MOTION    = 15.34868272
ECCENTRICITY   = .0005577
INCLINATION    = 51.8839
RA_OF_ASC_NODE = 286.9025
ARG_OF_PERICENTER = 11.1111
MEAN_ANOMALY   = 348.9997

EPHEMERIS_TYPE = 0
CLASSIFICATION_TYPE = U
NORAD_CAT_ID   = 67767
ELEMENT_SET_NO = 999
REV_AT_EPOCH   = 293
BSTAR          = .88176656E-3
MEAN_MOTION_DOT = .3002E-3
MEAN_MOTION_DDOT = 0

CCSDS_OMM_VERS = 2.0
CREATION_DATE  = 
ORIGINATOR     = 

OBJECT_NAME    = KUIPER-00180
OBJECT_ID      = 2026-030E
CENTER_NAME    = EARTH
REF_FRAME      = TEME
TIME_SYSTEM    = UTC
MEAN_ELEMENT_THEORY = SGP/SGP4

EPOCH          = 2026-02-23T14:07:01.756128
MEAN_MOTION    = 15.32815646
ECCENTRICITY   = .00149057
INCLINATION    = 51.8814
RA_OF_ASC_NODE = 287.2973
ARG_OF_PERICENTER = 26.2396
MEAN_ANOMALY   = 333.9341

EPHEMERIS_TYPE = 0
CLASSIFICATION_TYPE = U
NORAD_CAT_ID   = 67768
ELEMENT_SET_NO = 999
REV_AT_EPOCH   = 292
BSTAR          = .86562624E-3
MEAN_MOTION_DOT = .27662E-3
MEAN_MOTION_DDOT = 0

CCSDS_OMM_VERS = 2.0
CREATION_DATE  = 
ORIGINATOR     = 

OBJECT_NAME    = KUIPER-00197
OBJECT_ID      = 2026-030F
CENTER_NAME    = EARTH
REF_FRAME      = TEME
TIME_SYSTEM    = UTC
MEAN_ELEMENT_THEORY = SGP/SGP4

EPOCH          = 2026-02-23T15:12:26.738784
MEAN_MOTION    = 15.35731803
ECCENTRICITY   = .00016418
INCLINATION    = 51.8839
RA_OF_ASC_NODE = 286.8610
ARG_OF_PERICENTER = 75.9299
MEAN_ANOMALY   = 284.1870

EPHEMERIS_TYPE = 0
CLASSIFICATION_TYPE = U
NORAD_CAT_ID   = 67769
ELEMENT_SET_NO = 999
REV_AT_EPOCH   = 293
BSTAR          = .96673326E-3
MEAN_MOTION_DOT = .33884E-3
MEAN_MOTION_DDOT = 0

CCSDS_OMM_VERS = 2.0
CREATION_DATE  = 
ORIGINATOR     = 

OBJECT_NAME    = KUIPER-00198
OBJECT_ID      = 2026-030G
CENTER_NAME    = EARTH
REF_FRAME      = TEME
TIME_SYSTEM    = UTC
MEAN_ELEMENT_THEORY = SGP/SGP4

EPOCH          = 2026-02-23T15:16:11.886816
MEAN_MOTION    = 15.35386700
ECCENTRICITY   = .00025042
INCLINATION    = 51.8814
RA_OF_ASC_NODE = 286.8760
ARG_OF_PERICENTER = 25.3989
MEAN_ANOMALY   = 334.7120

EPHEMERIS_TYPE = 0
CLASSIFICATION_TYPE = U
NORAD_CAT_ID   = 67770
ELEMENT_SET_NO = 999
REV_AT_EPOCH   = 293
BSTAR          = .11302095E-2
MEAN_MOTION_DOT = .3927E-3
MEAN_MOTION_DDOT = 0

CCSDS_OMM_VERS = 2.0
CREATION_DATE  = 
ORIGINATOR     = 

OBJECT_NAME    = KUIPER-00199
OBJECT_ID      = 2026-030H
CENTER_NAME    = EARTH
REF_FRAME      = TEME
TIME_SYSTEM    = UTC
MEAN_ELEMENT_THEORY = SGP/SGP4

EPOCH          = 2026-02-23T15:32:32.832672
MEAN_MOTION    = 15.33772529
ECCENTRICITY   = .00102777
INCLINATION    = 51.8802
RA_OF_ASC_NODE = 286.9484
ARG_OF_PERICENTER = 20.6712
MEAN_ANOMALY   = 339.4687

EPHEMERIS_TYPE = 0
CLASSIFICATION_TYPE = U
NORAD_CAT_ID   = 67771
ELEMENT_SET_NO = 999
REV_AT_EPOCH   = 293
BSTAR          = .91452925E-3
MEAN_MOTION_DOT = .30108E-3
MEAN_MOTION_DDOT = 0

CCSDS_OMM_VERS = 2.0
CREATION_DATE  = 
ORIGINATOR     = 

OBJECT_NAME    = KUIPER-00200
OBJECT_ID      = 2026-030J
CENTER_NAME    = EARTH
REF_FRAME      = TEME
TIME_SYSTEM    = UTC
MEAN_ELEMENT_THEORY = SGP/SGP4

EPOCH          = 2026-02-23T15:06:15.928992
MEAN_MOTION    = 15.36348912
ECCENTRICITY   = .00023219
INCLINATION    = 51.8817
RA_OF_ASC_NODE = 286.8320
ARG_OF_PERICENTER = 155.2893
MEAN_ANOMALY   = 204.8205

EPHEMERIS_TYPE = 0
CLASSIFICATION_TYPE = U
NORAD_CAT_ID   = 67772
ELEMENT_SET_NO = 999
REV_AT_EPOCH   = 293
BSTAR          = .91616471E-3
MEAN_MOTION_DOT = .32735E-3
MEAN_MOTION_DDOT = 0

CCSDS_OMM_VERS = 2.0
CREATION_DATE  = 
ORIGINATOR     = 

OBJECT_NAME    = KUIPER-00203
OBJECT_ID      = 2026-030K
CENTER_NAME    = EARTH
REF_FRAME      = TEME
TIME_SYSTEM    = UTC
MEAN_ELEMENT_THEORY = SGP/SGP4

EPOCH          = 2026-02-23T03:04:40.055232
MEAN_MOTION    = 15.33457398
ECCENTRICITY   = .00122691
INCLINATION    = 51.8804
RA_OF_ASC_NODE = 289.4645
ARG_OF_PERICENTER = 19.7843
MEAN_ANOMALY   = 340.3616

EPHEMERIS_TYPE = 0
CLASSIFICATION_TYPE = U
NORAD_CAT_ID   = 67773
ELEMENT_SET_NO = 999
REV_AT_EPOCH   = 285
BSTAR          = .91173169E-3
MEAN_MOTION_DOT = .29734E-3
MEAN_MOTION_DDOT = 0

CCSDS_OMM_VERS = 2.0
CREATION_DATE  = 
ORIGINATOR     = 

OBJECT_NAME    = KUIPER-00205
OBJECT_ID      = 2026-030L
CENTER_NAME    = EARTH
REF_FRAME      = TEME
TIME_SYSTEM    = UTC
MEAN_ELEMENT_THEORY = SGP/SGP4

EPOCH          = 2026-02-23T15:13:21.347904
MEAN_MOTION    = 15.35708706
ECCENTRICITY   = .00020409
INCLINATION    = 51.8821
RA_OF_ASC_NODE = 286.8642
ARG_OF_PERICENTER = 354.7557
MEAN_ANOMALY   = 5.3408

EPHEMERIS_TYPE = 0
CLASSIFICATION_TYPE = U
NORAD_CAT_ID   = 67774
ELEMENT_SET_NO = 999
REV_AT_EPOCH   = 293
BSTAR          = .87035064E-3
MEAN_MOTION_DOT = .30431E-3
MEAN_MOTION_DDOT = 0

CCSDS_OMM_VERS = 2.0
CREATION_DATE  = 
ORIGINATOR     = 

OBJECT_NAME    = KUIPER-00208
OBJECT_ID      = 2026-030M
CENTER_NAME    = EARTH
REF_FRAME      = TEME
TIME_SYSTEM    = UTC
MEAN_ELEMENT_THEORY = SGP/SGP4

EPOCH          = 2026-02-23T14:06:30.735936
MEAN_MOTION    = 15.32836508
ECCENTRICITY   = .0014637
INCLINATION    = 51.8842
RA_OF_ASC_NODE = 287.3013
ARG_OF_PERICENTER = 21.0632
MEAN_ANOMALY   = 339.0953

EPHEMERIS_TYPE = 0
CLASSIFICATION_TYPE = U
NORAD_CAT_ID   = 67775
ELEMENT_SET_NO = 999
REV_AT_EPOCH   = 292
BSTAR          = .60163936E-3
MEAN_MOTION_DOT = .19099E-3
MEAN_MOTION_DDOT = 0

CCSDS_OMM_VERS = 2.0
CREATION_DATE  = 
ORIGINATOR     = 

OBJECT_NAME    = KUIPER-00209
OBJECT_ID      = 2026-030N
CENTER_NAME    = EARTH
REF_FRAME      = TEME
TIME_SYSTEM    = UTC
MEAN_ELEMENT_THEORY = SGP/SGP4

EPOCH          = 2026-02-23T14:05:09.314304
MEAN_MOTION    = 15.32800114
ECCENTRICITY   = .00125629
INCLINATION    = 51.8832
RA_OF_ASC_NODE = 287.2940
ARG_OF_PERICENTER = 22.4241
MEAN_ANOMALY   = 337.7290

EPHEMERIS_TYPE = 0
CLASSIFICATION_TYPE = U
NORAD_CAT_ID   = 67776
ELEMENT_SET_NO = 999
REV_AT_EPOCH   = 292
BSTAR          = .16269122E-2
MEAN_MOTION_DOT = .52418E-3
MEAN_MOTION_DDOT = 0

CCSDS_OMM_VERS = 2.0
CREATION_DATE  = 
ORIGINATOR     = 

OBJECT_NAME    = KUIPER-00213
OBJECT_ID      = 2026-030P
CENTER_NAME    = EARTH
REF_FRAME      = TEME
TIME_SYSTEM    = UTC
MEAN_ELEMENT_THEORY = SGP/SGP4

EPOCH          = 2026-02-23T14:05:13.172064
MEAN_MOTION    = 15.32889391
ECCENTRICITY   = .00141299
INCLINATION    = 51.8816
RA_OF_ASC_NODE = 287.2893
ARG_OF_PERICENTER = 22.1239
MEAN_ANOMALY   = 338.0353

EPHEMERIS_TYPE = 0
CLASSIFICATION_TYPE = U
NORAD_CAT_ID   = 67777
ELEMENT_SET_NO = 999
REV_AT_EPOCH   = 292
BSTAR          = .13280869E-2
MEAN_MOTION_DOT = .42815E-3
MEAN_MOTION_DDOT = 0

